CZ-4 DEB                
1 34211U 99057RN  21157.91320934  .00000457  00000-0  99885-4 0  9997
2 34211  98.4009 192.6232 0074526 298.1817  61.1869 14.61167138423578
CBERS 1 DEB             
1 34213U 99057RQ  21164.92424676  .00003159  00000-0  40348-3 0  9997
2 34213  98.2300 225.2791 0006725  10.6779 162.1853 14.82169697735155
CBERS 1 DEB             
1 34215U 99057RS  21164.73641628  .00001712  00000-0  34120-3 0  9990
2 34215  98.4203 175.3393 0005127 327.0194  33.0687 14.63344588329754
CBERS 1 DEB             
1 34217U 99057RU  21165.15301277  .00022832  00000-0  11297-2 0  9997
2 34217  98.2126 239.5766 0010706 191.1041 168.9956 15.17773909731808
PSLV DEB                
1 34221U 01049PR  21164.47832984 -.00000445  00000-0 -27719-4 0  9990
2 34221  98.4850 251.7629 0053158  97.1923 263.5347 15.01488655 38962
CZ-4B DEB               
1 34223U 02024H   21164.75160693  .00000273  00000-0  19267-3 0  9993
2 34223  99.2354 176.1678 0132757  18.2131 342.3723 14.02263817954911
BREEZE-M DEB            
1 34226U 06006AR  21164.58759052  .00001361  00000-0  10261-2 0  9997
2 34226  51.6450 266.4254 5030351 223.2070  84.0983  5.42458519161476
BREEZE-M DEB            
1 34227U 06006AS  21163.77854900  .00000114  00000-0  59520-3 0  9993
2 34227  52.0216  21.5414 4926216  72.2234   1.7719  5.39016083150469
BREEZE-M DEB            
1 34229U 06006AU  21164.37089826  .00006174  00000-0  19853-2 0  9995
2 34229  51.3678 314.3879 4453286  68.5790 332.5372  6.47063600158139
BREEZE-M DEB            
1 34230U 06006AV  21162.20125807  .00000337  00000-0  51281-3 0  9994
2 34230  51.7952 346.4096 5064389 145.6996 261.0215  5.32728533255175
BREEZE-M DEB            
1 34233U 06006AY  21164.43049215  .00000901  00000-0  10683-2 0  9999
2 34233  52.1762 298.2293 4874827  96.5428 319.0302  5.62248201 37591
BREEZE-M DEB            
1 34235U 06006BA  21165.09197208  .00001464  00000-0  17044-2 0  9993
2 34235  51.7208 322.3179 5036288 177.5943 186.4544  5.37034705255207
BREEZE-M DEB            
1 34238U 06006BD  21164.15044920  .00001199  00000-0  15921-2 0  9991
2 34238  51.5792 111.7840 5099608  83.1109 329.9295  5.25370228  3996
BREEZE-M DEB            
1 34239U 06006BE  21164.80784268  .00000931  00000-0  23977-2 0  9993
2 34239  50.5585  27.5342 2266454  48.5300 328.9092  9.85927114462723
BREEZE-M DEB            
1 34241U 06006BG  21164.77797559  .00000344  00000-0  11899-2 0  9997
2 34241  51.8098  19.0658 4953359 116.1580 349.7400  5.36164657157795
BREEZE-M DEB            
1 34242U 06006BH  21163.57955600 -.00001402  00000-0 -33248-1 0  9997
2 34242  54.4018 267.1554 4916814 111.6014 306.6046  5.00228611168528
BREEZE-M DEB            
1 34243U 06006BJ  21164.28274663  .00000752  00000-0  94935-3 0  9997
2 34243  51.6639  23.0521 5087329 143.4262 265.5216  5.28994893249893
BREEZE-M DEB            
1 34244U 06006BK  21164.52178073  .00000777  00000-0  15365-2 0  9999
2 34244  52.0252 237.9338 4883661 167.2099 212.0874  5.53506588269376
BREEZE-M DEB            
1 34246U 06006BM  21164.50338702  .00006065  00000-0  46331-2 0  9999
2 34246  51.6175 233.6257 4563868 168.6078 206.9828  6.17615680192490
BREEZE-M DEB            
1 34247U 06006BN  21163.59171176  .00000496  00000-0  86753-3 0  9993
2 34247  52.1753   7.8091 4978527  52.3212 343.3457  5.42027093  4383
BREEZE-M DEB            
1 34248U 06006BP  21164.78876714  .00002400  00000-0  12427-2 0  9999
2 34248  51.7002 358.8927 4857109  56.6750 340.9180  5.74953382 32447
BREEZE-M DEB            
1 34250U 06006BR  21163.93848691  .00000578  00000-0  96218-3 0  9996
2 34250  51.6985  71.5116 5088481  93.8564 323.1523  5.25206739258520
BREEZE-M DEB            
1 34252U 06006BT  21164.37644206  .00000118  00000-0  22802-3 0  9991
2 34252  51.6413  57.5144 5118926 116.8619 303.7641  5.23126685256621
BREEZE-M DEB            
1 34254U 06006BV  21164.63670089  .00001308  00000-0  91955-3 0  9997
2 34254  51.6399 171.0104 4553664 210.0469 113.5359  6.20627162276073
BREEZE-M DEB            
1 34259U 06006CA  21163.67238172  .00000042  00000-0  00000-0 0  9990
2 34259  50.9349 172.1446 4765119 259.5138  45.3941  5.07761778284453
BREEZE-M DEB            
1 34260U 06006CB  21148.23080356  .00000633  00000-0  26900-2 0  9991
2 34260  51.9880 121.4692 4917207   3.2800 358.9794  5.36217680   481
BREEZE-M DEB            
1 34261U 06006CC  21164.56074439  .00005135  00000-0  35403-2 0  9991
2 34261  52.0377 111.1523 4442389 133.7938 272.8920  6.39116174174879
BREEZE-M DEB            
1 34263U 06006CE  21162.82052520  .00005582  00000-0  39481-2 0  9993
2 34263  51.6627  24.5649 4766146  46.7615 344.3937  5.85824945269392
RADUGA 1-8              
1 34264U 09010A   21165.03799378 -.00000217  00000-0  00000+0 0  9990
2 34264   8.5113  56.8853 0015651 351.9373 206.5580  0.99830928 44915
SL-12 R/B(2)            
1 34265U 09010B   21164.62537410 -.00000274  00000-0  00000-0 0  9996
2 34265   8.5108  56.9349 0004723 339.6870 236.9143  1.00020362 44899
COSMOS 2251 DEB         
1 34270U 93036LQ  21164.78353118  .00000304  00000-0  79244-4 0  9994
2 34270  74.0147 192.4612 0060269  27.5258 332.9073 14.52805122651636
COSMOS 2251 DEB         
1 34271U 93036LR  21164.73750944  .00000871  00000-0  28049-3 0  9993
2 34271  74.0348  45.9136 0040529 144.2348 271.3060 14.40298009644212
COSMOS 2251 DEB         
1 34273U 93036LT  21164.80965345  .00000363  00000-0  10839-3 0  9990
2 34273  74.0416 299.6065 0019529 104.2393  46.0242 14.46371822647832
COSMOS 2251 DEB         
1 34274U 93036LU  21165.09569247  .00000419  00000-0  12361-3 0  9998
2 34274  74.0117 291.5551 0030485 109.9178  64.7707 14.46393333648339
COSMOS 2251 DEB         
1 34275U 93036LV  21164.85330174  .00001265  00000-0  33290-3 0  9991
2 34275  74.0342 307.9718 0014446  57.7141  59.5612 14.50036908647744
COSMOS 2251 DEB         
1 34276U 93036LW  21164.81569118  .00000269  00000-0  83355-4 0  9991
2 34276  74.0281 291.2284 0026686 115.4551  39.6844 14.45689868647835
COSMOS 2251 DEB         
1 34277U 93036LX  21164.73859074  .00007406  00000-0  55915-3 0  9996
2 34277  73.6890  64.5799 0023643 350.4075   9.6656 15.02366120662675
COSMOS 2251 DEB         
1 34292U 93036MN  21165.16477170  .00001376  00000-0  18502-3 0  9995
2 34292  74.0600 328.9991 0066208  89.6103 271.2659 14.78811611659975
COSMOS 2251 DEB         
1 34293U 93036MP  21164.69236706  .00004390  00000-0  33066-3 0  9992
2 34293  73.9681 141.0481 0062342  89.4320 326.2415 15.01266062663725
COSMOS 2251 DEB         
1 34295U 93036MR  21164.89458113  .00001557  00000-0  27008-3 0  9995
2 34295  74.0166  99.4987 0078258  29.4364  31.8556 14.67167639654916
COSMOS 2251 DEB         
1 34297U 93036MT  21164.78593531  .00000063  00000-0  31424-4 0  9998
2 34297  74.0503  55.6813 0017846 177.1050 251.5450 14.34855016644891
COSMOS 2251 DEB         
1 34298U 93036MU  21164.70459674  .00001487  00000-0  32107-3 0  9999
2 34298  74.0515 258.4542 0039327 348.3694  11.6558 14.58792114650358
COSMOS 2251 DEB         
1 34299U 93036MV  21165.11708584  .00001176  00000-0  22214-3 0  9996
2 34299  74.0256 303.3895 0223037  86.9531 275.7125 14.50837117648355
COSMOS 2251 DEB         
1 34300U 93036MW  21164.85520838  .00001073  00000-0  25839-3 0  9995
2 34300  74.0226 335.2065 0142832 123.7391 237.7475 14.48471322647270
COSMOS 2251 DEB         
1 34301U 93036MX  21164.73228885  .00001209  00000-0  37733-3 0  9997
2 34301  74.0242  37.4277 0039758 135.1430 287.9981 14.41450636645150
COSMOS 2251 DEB         
1 34302U 93036MY  21165.19963677  .00000189  00000-0  79782-4 0  9991
2 34302  74.1845 218.8311 0088172 177.3925 240.2240 14.29740706641899
COSMOS 2251 DEB         
1 34303U 93036MZ  21165.18107084  .00000510  00000-0  15868-3 0  9995
2 34303  74.0137  96.4017 0184482 267.2932 203.9045 14.34497778643136
COSMOS 2251 DEB         
1 34304U 93036NA  21164.58221628  .00000230  00000-0  98476-4 0  9996
2 34304  74.0185 229.3040 0155707  33.6543  91.7163 14.23876812638264
COSMOS 2251 DEB         
1 34307U 93036ND  21165.14950517  .00000360  00000-0  36085-3 0  9999
2 34307  74.0580  57.9903 0404085 243.8534 242.3041 13.50335558606798
COSMOS 2251 DEB         
1 34308U 93036NE  21164.80969903  .00001792  00000-0  28626-3 0  9993
2 34308  73.9965  58.7215 0047517 246.0839 178.8677 14.71948484655823
COSMOS 2251 DEB         
1 34313U 93036NK  21164.68425833  .00000766  00000-0  19350-3 0  9998
2 34313  74.0006 250.1709 0053540  68.2140 292.4706 14.51921665649532
COSMOS 2251 DEB         
1 34314U 93036NL  21164.75704752  .00000590  00000-0  31186-3 0  9993
2 34314  74.0084 346.0187 0112918 107.0034 267.4756 14.12692703634270
COSMOS 2251 DEB         
1 34315U 93036NM  21165.16745186  .00004100  00000-0  26564-3 0  9991
2 34315  74.1032 188.4079 0040876 210.7675 149.1121 15.07792726666165
COSMOS 2251 DEB         
1 34316U 93036NN  21164.70494745  .00000562  00000-0  13988-3 0  9997
2 34316  74.0783 251.8913 0017857  61.4288 298.8669 14.53984371651436
COSMOS 2251 DEB         
1 34317U 93036NP  21164.87001427  .00000171  00000-0  16752-3 0  9995
2 34317  73.9255 211.9774 0342139 152.9481  18.7665 13.62174634612700
COSMOS 2251 DEB         
1 34319U 93036NR  21164.71873714  .00001247  00000-0  28034-3 0  9997
2 34319  74.0303 264.6856 0028715   6.4103 353.7422 14.57331616650007
COSMOS 2251 DEB         
1 34321U 93036NT  21164.91765209  .00000236  00000-0  80155-4 0  9991
2 34321  74.0320 336.8880 0017296 145.4683 330.8079 14.41912215647594
COSMOS 2251 DEB         
1 34323U 93036NV  21164.89588958  .00000683  00000-0  20180-3 0  9991
2 34323  73.9683 354.0301 0111358  58.2215  61.8885 14.41867210645905
COSMOS 2251 DEB         
1 34325U 93036NX  21164.77242353  .00000557  00000-0  35732-3 0  9995
2 34325  73.8743 177.4807 0217969 145.6039  26.9710 13.94467875625526
